{"type":"FeatureCollection","features":[{"type":"Feature","geometry":{"type":"Point","coordinates":[-67.59490051913589,48.73731284340609]},"properties":{"nom":"Marie-Chantal Bienvenue","ville":"Saint-Damase-de-matapédia","sexe":"male","date":"2026-05-26T04:00:00.000Z","commentaire":""}},{"type":"Feature","geometry":{"type":"Point","coordinates":[-73.52249904169159,45.37915990252621]},"properties":{"nom":"pioupiou","ville":"candiac","sexe":"femelle","date":"2026-05-01T04:00:00.000Z","commentaire":""}},{"type":"Feature","geometry":{"type":"Point","coordinates":[-70.75916856070842,46.79509184335847]},"properties":{"nom":"Nathalie","ville":"","sexe":"","date":"","commentaire":""}}]}