{"type":"FeatureCollection","features":[{"type":"Feature","geometry":{"type":"Point","coordinates":[-67.59941045050316,48.73292376450715]},"properties":{"ville":"Saint-Damase-de-matapédia","sexe":"male","date":"2026-05-26T04:00:00.000Z","commentaire":""}},{"type":"Feature","geometry":{"type":"Point","coordinates":[-73.52882986139339,45.38326116910006]},"properties":{"ville":"candiac","sexe":"femelle","date":"2026-05-01T04:00:00.000Z","commentaire":""}},{"type":"Feature","geometry":{"type":"Point","coordinates":[-70.74797925106665,46.79730601992036]},"properties":{"ville":"","sexe":"","date":"","commentaire":""}}]}