{"type":"FeatureCollection","features":[{"type":"Feature","geometry":{"type":"Point","coordinates":[-67.88895099635144,48.62181882204535]},"properties":{"nom":"pioupiou","ville":"saint-damase de matapedia","maleDate":"","femelleDate":""}},{"type":"Feature","geometry":{"type":"Point","coordinates":[-73.5269901277648,45.386056965595735]},"properties":{"nom":"maman","ville":"candiac","maleDate":"","femelleDate":""}},{"type":"Feature","geometry":{"type":"Point","coordinates":[-74.24000147102227,45.43578361050424]},"properties":{"nom":"","ville":"Rigaud","maleDate":"","femelleDate":""}},{"type":"Feature","geometry":{"type":"Point","coordinates":[-73.99224686285982,45.87699433927224]},"properties":{"nom":"Marie-Chantal Bienvenue","ville":"saint-hippolyte","maleDate":"","femelleDate":"2026-05-22T04:00:00.000Z"}}]}