{"type":"FeatureCollection","features":[{"type":"Feature","geometry":{"type":"Point","coordinates":[-67.60294766984548,48.7320002585672]},"properties":{"ville":"Saint-Damase-de-matapédia","sexe":"","date":"","commentaire":"","typeCarte":"Arrivées"}},{"type":"Feature","geometry":{"type":"Point","coordinates":[-73.5329654462477,45.385793778796774]},"properties":{"ville":"candiac","sexe":"","date":"","commentaire":"","typeCarte":"Arrivées"}},{"type":"Feature","geometry":{"type":"Point","coordinates":[-70.75258246854479,46.79565009948643]},"properties":{"ville":"","sexe":"","date":"","commentaire":"","typeCarte":"Arrivées"}}]}